#cP2023  8 22  0  0  0.00000000      96 ORBIT IGS20 HLM  IGS
## 2276 172800.00000000   900.00000000 60178 0.0000000000000
+   31   G01G02G03G04G05G06G07G08G09G10G11G12G13G14G15G16G17
+        G18G19G20G21G22G23G24G25G26G27G29G30G31G32  0  0  0
+          0  0  0  0  0  0  0  0  0  0  0  0  0  0  0  0  0
+          0  0  0  0  0  0  0  0  0  0  0  0  0  0  0  0  0
+          0  0  0  0  0  0  0  0  0  0  0  0  0  0  0  0  0
++         2  2  2  3  2  2  2  2  2  2  2  2  2  2  2  2  2
++         2  2  2  2  2  2  2  2  2  2  2  2  2  2  0  0  0
++         0  0  0  0  0  0  0  0  0  0  0  0  0  0  0  0  0
++         0  0  0  0  0  0  0  0  0  0  0  0  0  0  0  0  0
++         0  0  0  0  0  0  0  0  0  0  0  0  0  0  0  0  0
%c G  cc GPS ccc cccc cccc cccc cccc ccccc ccccc ccccc ccccc
%c cc cc ccc ccc cccc cccc cccc cccc ccccc ccccc ccccc ccccc
%f  1.2500000  1.025000000  0.00000000000  0.000000000000000
%f  0.0000000  0.000000000  0.00000000000  0.000000000000000
%i    0    0    0    0      0      0      0      0         0
%i    0    0    0    0      0      0      0      0         0
/* RAPID ORBIT COMBINATION FROM WEIGHTED AVERAGE OF:        
/* cod emr esa gfz grg jgx jpl ngs sio usn whu              
/* REFERENCED TO IGS TIME (IGST) AND TO WEIGHTED MEAN POLE: 
/* PCV:IGS20      OL/AL:FES2014b NONE     Y  ORB:CMB CLK:CMB
*  2023  8 22  7 30  0.00000000
PG01  14048.761431 -19582.538543  10423.118235    167.729031  6  4  5 107       
PG02  15348.290099 -13987.577307  16963.260564   -562.752043  5  3  5  90       
PG03  19814.595559 -12640.562549 -12403.874941   -175.104256  3  3  4  92       
PG04   9207.893778 -12381.497995 -21597.529518    133.040983  9  5  8  89       
PG05 -26058.165069   4717.007018  -2864.023398   -139.750439  6  8  4 108       
PG06  -7873.626956 -16327.824316 -19318.927438    562.773250  7  7  5  93       
PG07   4669.810309 -25492.587112   4947.185331     88.846125  7  7  3 105       
PG08  17349.483760  -2194.752766  20027.731048   -138.399141  3     3  78       
PG09      4.328542 -19083.330894 -18533.059801    -80.243224  7  6  8 102       
PG10  10955.220779  12189.150740  21148.666154    -50.281548  6  5  5  71       
PG11 -15192.071348  -2209.568986 -21657.682449   -332.211441  5  8  7 105       
PG12 -22954.550325   9714.190618  -9334.903928   -415.799508  5  6  3 107       
PG13 -19006.253586  -7587.628383  16856.182607    563.152968  4  7  6 111       
PG14  -7105.652895 -14267.509576  21286.659680    161.569650  5  5  5 111       
PG15 -16619.343587   5091.046177  19670.551833     69.990434  3  6  5 101       
PG16  25928.206679   1689.633605  -6862.989239   -464.965201  3  4  2  95       
PG17 -12489.732777 -22640.475655   6236.265117    723.041564  5  7  5  96       
PG18  -3838.797081  25270.913865   6875.026508   -391.111891  7 10  4 115       
PG19 -16995.280112 -20504.585272  -2636.498894    361.003780  5  8  6  98       
PG20 -22949.650230  -1005.862116 -13130.134078    415.924400  4  8  5 101       
PG21  15799.079677 -10744.087774  18578.348150    150.319846  4  4  4  90       
PG22 -14253.842424 -11889.528173  19357.403824    136.919593  5  5    117       
PG23  -3232.616427  15590.630775  21232.580461     58.180934  3  5  5 112       
PG24 -14603.794576  16376.753936  14291.199501   -297.101756  6  8  3 118       
PG25 -10956.846087  15908.285987 -18428.272608    463.550232  4  6  6 101       
PG26  20352.258097   6584.707327 -16079.021514    231.947823  3  6     95       
PG27  21026.399013   9873.471662  12993.015684    -26.342549  6  7  5  85       
PG29  -1703.282518  18690.034855 -18801.234309   -608.205281  5  6  4  81       
PG30  -2602.704213 -22850.123868  13181.067342   -494.430036  6  5  5 103       
PG31  13583.636167   7624.425270 -21662.884755   -222.229214  3  6  4  89       
PG32  16613.597944  20740.681855   2454.652138   -544.934632  6  8  5  89       
*  2023  8 22  7 45  0.00000000
PG01  13802.598270 -18202.543999  12909.424094    167.727807  6  5  4  77       
PG02  15090.147972 -12046.185830  18665.187956   -562.748059  6  2  5  87       
PG03  21078.263420 -12765.967313  -9902.291829   -175.087361  2  4  4  88       
PG04  10880.005732 -10542.837552 -21805.251203    133.051300  9  4  8  81       
PG05 -25674.352469   4370.673485  -5671.045769   -139.751982  5  8  4 105       
PG06  -7161.913485 -18335.434954 -17726.544055    562.768264  7  8  5  96       
PG07   5072.991332 -25748.761595   2122.440059     88.836470  7  7  3 102       
PG08  18861.777097   -560.874956  18772.622589   -138.401050  3     3  60       
PG09   1638.522119 -17628.641430 -19863.553925    -80.234330  7  5  8  90       
PG10   8622.080827  12797.872754  21835.283112    -50.283050  6  4  5  78       
PG11 -14394.389010  -4568.247166 -21836.924394   -332.227224  6  8  7  96       
PG12 -23864.301085   9638.081201  -6667.000987   -415.803487  5  6  3 105       
PG13 -19960.649550  -9166.243802  14894.372968    563.157224  5  7  7 105       
PG14  -4713.870585 -14801.876984  21569.354496    161.580103  5  5  5 100       
PG15 -18328.553228   3578.063422  18500.818953     69.993554  3  7  5  75       
PG16  25080.550570   2012.646308  -9494.192791   -464.960565  4  5  2  88       
PG17 -11803.459124 -22149.741347   8946.024859    723.041777  5  6  5  90       
PG18  -4238.728442  25804.707632   4074.195240   -391.123758  7  9  5  95       
PG19 -16909.898441 -20714.916509    218.152807    361.008419  5  7  6  90       
PG20 -21537.420095  -1869.966756 -15266.339103    415.922911  4  8  5  96       
PG21  15532.839791  -8620.587969  19977.455296    150.319390  4  4  4  83       
PG22 -12092.942586 -12322.655093  20572.639510    136.912914  5  5  1 107       
PG23  -5542.924614  16148.816406  20302.874768     58.185239  2  5  5 107       
PG24 -14510.692641  14530.842702  16240.245825   -297.111950  6  8  3 115       
PG25 -12905.800638  16237.277135 -16752.391006    463.552171  5  6  6  95       
PG26  18587.401272   7343.858222 -17777.256379    231.946412  2  7     94       
PG27  21849.325479  10985.233714  10603.131632    -26.348481  6  7  5  85       
PG29  -3190.023267  17040.896015 -20139.877097   -608.205947  5  6  4  92       
PG30  -1937.756848 -24083.465522  10851.000144   -494.427169  6  5  5  95       
PG31  12797.030764   9913.505039 -21168.614991   -222.229581  3  6  4  92       
PG32  16152.960537  20605.516818   5253.234673   -544.940618  6  8  5  86       
*  2023  8 22  8  0  0.00000000
PG01  13568.864146 -16544.060705  15165.317753    167.726602  6  6  4  94       
PG02  14912.271907  -9927.136190  20056.389767   -562.744037  6  2  4  82       
PG03  22053.982264 -12873.442306  -7230.251808   -175.070476  1  4  4  93       
PG04  12647.115279  -8793.765266 -21637.423736    133.061610  8  4  7  92       
PG05 -25016.888457   3900.169575  -8381.500866   -139.753490  5  7  3 106       
PG06  -6610.240424 -20186.535249 -15826.687668    562.763276  7  8  5  77       
PG07   5394.076446 -25707.847031   -739.751447     88.826926  7  6  4 100       
PG08  20334.698838    884.016479  17196.539474   -138.402279  3     3  73       
PG09   3442.924711 -16173.721855 -20854.104829    -80.225389  7  4  8  80       
PG10   6270.114305  13553.442905  22153.600282    -50.283546  6  3  5  86       
PG11 -13722.876749  -6964.354979 -21640.010676   -332.243053  7  8  7  95       
PG12 -24478.264243   9538.003644  -3884.716682   -415.807598  4  5  3 102       
PG13 -20847.882935 -10504.952758  12675.594491    563.161165  5  7  7 109       
PG14  -2339.654038 -15458.756922  21481.783958    161.590629  5  5  5  86       
PG15 -19978.476882   2237.630898  17002.715135     69.996654  2  7  6  90       
PG16  23973.683714   2439.370649 -11967.977480   -464.955768  4  5  2  87       
PG17 -10890.286487 -21481.368638  11503.316953    723.042513  5  5  5  74       
PG18  -4532.151959  26045.647260   1202.492649   -391.135636  6  9  5 104       
PG19 -16623.856717 -20688.981879   3069.104500    361.013123  5  7  5 106       
PG20 -19967.608838  -2905.544283 -17137.002632    415.920954  5  8  4  96       
PG21  15359.153502  -6359.521727  21039.455292    150.318903  5  2  4  83       
PG22  -9848.469674 -12893.004734  21445.479082    136.906081  5  5  2 103       
PG23  -7702.328421  16791.002005  19022.533045     58.189590  2  4  5 105       
PG24 -14475.271386  12477.629559  17897.535637   -297.122120  6  7  4 103       
PG25 -14644.818292  16601.932053 -14791.516501    463.554046  5  6  6  95       
PG26  16698.456052   8250.844609 -19175.946604    231.945006  3  7  1 105       
PG27  22524.214401  11858.558809   8032.667676    -26.354409  6  7  4  90       
PG29  -4853.240020  15378.965093 -21132.512283   -608.206522  5  6  3  89       
PG30  -1394.133640 -25081.360465   8332.630471   -494.424324  6  5  6  77       
PG31  12146.000882  12170.589024 -20313.712334   -222.230079  3  6  5  87       
PG32  15457.998222  20285.560575   7962.863586   -544.946586  6  8  5  86       
EOF
